{
    "satellites": [
        {
            "name": "starlink379",
            "title": "Starlink-379 (G17-14)",
            "tle": [
                "1 68824C 26089Y   26120.42756944 -.02058800  00000+0 -63548-2 0  1203",
                "2 68824  97.2830 325.8311 0001614  69.4309 357.3400 15.92786166    19"
            ],
            "stdMag": 5,
            "noradId": "68824",
            "intDes": null,
            "tleUrl": "http://celestrak.org/NORAD/elements/supplemental/sup-gp.php?FILE=starlink&FORMAT=tle",
            "launchDate": "2026-04-23T03:23:09.000Z",
            "active": true,
            "batch": [
                {
                    "noradId": "68824",
                    "tle": [
                        "1 68824C 26089Y   26120.42756944 -.02058800  00000+0 -63548-2 0  1203",
                        "2 68824  97.2830 325.8311 0001614  69.4309 357.3400 15.92786166    19"
                    ]
                },
                {
                    "noradId": "68823",
                    "tle": [
                        "1 68823C 26089X   26120.42826389 -.02053800  00000+0 -63895-2 0  1203",
                        "2 68823  97.2832 325.8306 0001525  73.3466 354.6274 15.92630222    13"
                    ]
                },
                {
                    "noradId": "68822",
                    "tle": [
                        "1 68822C 26089W   26120.42826389 -.02065700  00000+0 -65355-2 0  1207",
                        "2 68822  97.2831 325.8280 0001491  72.7078 350.1328 15.92307643    15"
                    ]
                },
                {
                    "noradId": "68825",
                    "tle": [
                        "1 68825C 26089Z   26120.43381944 -.02052100  00000+0 -62887-2 0  1201",
                        "2 68825  97.2828 325.8382 0001659  72.8817  32.1249 15.92923070    12"
                    ]
                },
                {
                    "noradId": "68820",
                    "tle": [
                        "1 68820C 26089U   26120.47548611 -.02047900  00000+0 -64871-2 0  1203",
                        "2 68820  97.2829 325.8798 0001341  82.3140 253.4952 15.92274802    13"
                    ]
                },
                {
                    "noradId": "68821",
                    "tle": [
                        "1 68821C 26089V   26120.46993056 -.02054900  00000+0 -66166-2 0  1207",
                        "2 68821  97.2834 325.8724 0001525  85.1403 213.9000 15.91956585    15"
                    ]
                },
                {
                    "noradId": "68819",
                    "tle": [
                        "1 68819C 26089T   26120.45951389 -.02057800  00000+0 -66697-2 0  1207",
                        "2 68819  97.2833 325.8596 0001635  90.3239 146.5653 15.91827979    14"
                    ]
                },
                {
                    "noradId": "68818",
                    "tle": [
                        "1 68818C 26089S   26120.45256944 -.02050900  00000+0 -66931-2 0  1206",
                        "2 68818  97.2834 325.8509 0001930  77.7554 116.6208 15.91687525    10"
                    ]
                },
                {
                    "noradId": "68817",
                    "tle": [
                        "1 68817C 26089R   26120.44006944 -.02091200  00000+0 -68698-2 0  1207",
                        "2 68817  97.2832 325.8362 0001706  78.9125  41.4252 15.91579514    14"
                    ]
                },
                {
                    "noradId": "68816",
                    "tle": [
                        "1 68816C 26089Q   26120.46923611 -.02081800  00000+0 -69975-2 0  1201",
                        "2 68816  97.2839 325.8657 0001492  88.8545 192.8888 15.91120320    18"
                    ]
                },
                {
                    "noradId": "68815",
                    "tle": [
                        "1 68815C 26089P   26120.42340278 -.02097400  00000+0 -69229-2 0  1203",
                        "2 68815  97.2837 325.8175 0001522  72.1563 309.9716 15.91488686    13"
                    ]
                },
                {
                    "noradId": "68814",
                    "tle": [
                        "1 68814C 26089N   26120.45951389 -.02089600  00000+0 -70746-2 0  1205",
                        "2 68814  97.2840 325.8542 0001687  88.4671 135.0468 15.90980715    17"
                    ]
                },
                {
                    "noradId": "46714",
                    "tle": [
                        "1 46714C 20073AW  26120.39354167  .00410780  00000+0  10249-2 0  1206",
                        "2 46714  53.0316 298.1511 0008151 280.4661 300.2609 15.94786139    15"
                    ]
                },
                {
                    "noradId": "68812",
                    "tle": [
                        "1 68812C 26089L   26120.49562500 -.02121400  00000+0 -73721-2 0  1201",
                        "2 68812  97.2844 325.8908 0001532  67.7823 357.0689 15.90476538    17"
                    ]
                },
                {
                    "noradId": "68811",
                    "tle": [
                        "1 68811C 26089K   26120.49076389 -.02112200  00000+0 -73987-2 0  1207",
                        "2 68811  97.2848 325.8844 0001570  63.1450 331.1089 15.90312376    13"
                    ]
                },
                {
                    "noradId": "68810",
                    "tle": [
                        "1 68810C 26089J   26120.42826389 -.02124500  00000+0 -74133-2 0  1202",
                        "2 68810  97.2847 325.8162 0001474  73.3820 320.6062 15.90395788    13"
                    ]
                },
                {
                    "noradId": "68809",
                    "tle": [
                        "1 68809C 26089H   26120.46298611 -.02118100  00000+0 -75128-2 0  1209",
                        "2 68809  97.2850 325.8524 0001690  87.4861 142.2953 15.90063322    11"
                    ]
                },
                {
                    "noradId": "68808",
                    "tle": [
                        "1 68808C 26089G   26120.49076389 -.02131200  00000+0 -76747-2 0  1201",
                        "2 68808  97.2853 325.8809 0001419  69.6318 316.2200 15.89765507    17"
                    ]
                },
                {
                    "noradId": "68806",
                    "tle": [
                        "1 68806C 26089E   26120.49145833 -.02149800  00000+0 -79008-2 0  1208",
                        "2 68806  97.2854 325.8795 0001435  70.2344 314.1449 15.89363944    16"
                    ]
                },
                {
                    "noradId": "68807",
                    "tle": [
                        "1 68807C 26089F   26120.46437500 -.02131100  00000+0 -77061-2 0  1202",
                        "2 68807  97.2852 325.8514 0001673  87.1244 145.0446 15.89682010    10"
                    ]
                },
                {
                    "noradId": "68805",
                    "tle": [
                        "1 68805C 26089D   26120.48729167 -.02147900  00000+0 -79579-2 0  1206",
                        "2 68805  97.2852 325.8736 0001393  74.7552 282.8067 15.89198795    18"
                    ]
                },
                {
                    "noradId": "68804",
                    "tle": [
                        "1 68804C 26089C   26120.47618056 -.02160000  00000+0 -80632-2 0  1206",
                        "2 68804  97.2855 325.8607 0001514  84.3307 206.8748 15.89052223    14"
                    ]
                },
                {
                    "noradId": "68803",
                    "tle": [
                        "1 68803C 26089B   26120.48659722 -.02173400  00000+0 -82080-2 0  1208",
                        "2 68803  97.2857 325.8705 0001439  75.2486 272.5053 15.88822008    11"
                    ]
                },
                {
                    "noradId": "68802",
                    "tle": [
                        "1 68802C 26089A   26120.43243056 -.02211000  00000+0 -83460-2 0  1203",
                        "2 68802  97.2857 325.8110 0001403  83.5970 311.8627 15.88852042    16"
                    ]
                }
            ]
        }
    ],
    "config": {}
}